GPS BIIR-2  (PRN 13)    
1 24876U 97035A   24024.19232096 -.00000040  00000+0  00000+0 0  9998
2 24876  55.6262 132.8008 0075899  53.1714 307.5009  2.00565241194403
GPS BIIR-4  (PRN 20)    
1 26360U 00025A   24024.56143257 -.00000055  00000+0  00000+0 0  9998
2 26360  54.5500  54.7810 0040589 210.4297 146.4033  2.00560272173729
GPS BIIR-5  (PRN 22)    
1 26407U 00040A   24024.52697462  .00000053  00000+0  00000+0 0  9992
2 26407  55.1307 249.9415 0148420 294.0223 238.6218  2.00558109172401
GPS BIIR-8  (PRN 16)    
1 27663U 03005A   24024.23817793  .00000055  00000+0  00000+0 0  9992
2 27663  55.1715 249.7638 0137806  46.3024  54.9503  2.00557951153765
GPS BIIR-9  (PRN 21)    
1 27704U 03010A   24024.56884863 -.00000105  00000+0  00000+0 0  9999
2 27704  55.1150 359.6275 0253543 322.7607 234.5247  2.00557487152558
GPS BIIR-11 (PRN 19)    
1 28190U 04009A   24022.11612310 -.00000083  00000+0  00000+0 0  9998
2 28190  55.5773 310.9069 0092730 142.7315  23.8024  2.00562972145356
GPS BIIR-13 (PRN 02)    
1 28474U 04045A   24024.60177986 -.00000104  00000+0  00000+0 0  9998
2 28474  55.4429 359.9960 0164910 287.7650 280.8058  2.00538154140883
GPS BIIRM-1 (PRN 17)    
1 28874U 05038A   24024.59093728 -.00000066  00000+0  00000+0 0  9991
2 28874  55.6238 308.2646 0138913 282.7351 255.0858  2.00565697134283
GPS BIIRM-2 (PRN 31)    
1 29486U 06042A   24024.24517112  .00000028  00000+0  00000+0 0  9994
2 29486  54.6814 186.0291 0104733  36.4562 151.9330  2.00563243126848
GPS BIIRM-3 (PRN 12)    
1 29601U 06052A   24023.91359715  .00000059  00000+0  00000+0 0  9994
2 29601  55.1971 248.7453 0087083  80.4231 280.6373  2.00558018125854
GPS BIIRM-4 (PRN 15)    
1 32260U 07047A   24022.72405914 -.00000058  00000+0  00000+0 0  9995
2 32260  53.5310 116.3204 0152273  73.5492 288.1190  2.00572037119230
GPS BIIRM-5 (PRN 29)    
1 32384U 07062A   24024.80167655 -.00000067  00000+0  00000+0 0  9997
2 32384  55.7593 309.0984 0024250 148.6582  39.7298  2.00566146117979
GPS BIIRM-6 (PRN 07)    
1 32711U 08012A   24024.63564998  .00000023  00000+0  00000+0 0  9990
2 32711  54.4515 184.8115 0180465 236.8834 121.3385  2.00562842116219
GPS BIIRM-8 (PRN 05)    
1 35752U 09043A   24024.86358903 -.00000046  00000+0  00000+0 0  9991
2 35752  55.5526  62.0276 0055369  69.7873 107.6381  2.00549751105806
GPS BIIF-1  (PRN 25)    
1 36585U 10022A   24024.69728852  .00000056  00000+0  00000+0 0  9990
2 36585  54.5014 243.8356 0115640  60.7834 119.7311  2.00569355100058
GPS BIIF-3  (PRN 24)    
1 38833U 12053A   24024.30886688  .00000015  00000+0  00000+0 0  9999
2 38833  53.5147 179.3884 0148954  54.7609 306.5815  2.00556284 82789
GPS BIIF-4  (PRN 27)    
1 39166U 13023A   24024.17468322 -.00000061  00000+0  00000+0 0  9995
2 39166  55.2373 304.4208 0120982  42.3436 318.6148  2.00563505 78335
GPS BIIF-5  (PRN 30)    
1 39533U 14008A   24023.18046789  .00000036  00000+0  00000+0 0  9997
2 39533  53.5994 185.0120 0068569 215.8791 143.6315  2.00559707 72113
GPS BIIF-6  (PRN 06)    
1 39741U 14026A   24024.45885773 -.00000098  00000+0  00000+0 0  9992
2 39741  56.7106   5.4768 0032974 311.4715  48.2441  2.00578621 70997
GPS BIIF-7  (PRN 09)    
1 40105U 14045A   24024.54513842 -.00000041  00000+0  00000+0 0  9992
2 40105  54.8685 123.3892 0026423 117.4231 242.8442  2.00556091 69427
GPS BIIF-8  (PRN 03)    
1 40294U 14068A   24024.41190310 -.00000044  00000+0  00000+0 0  9996
2 40294  56.2974  64.8939 0048433  60.2005 300.3507  2.00550357 67668
GPS BIIF-9  (PRN 26)    
1 40534U 15013A   24024.05740069  .00000062  00000+0  00000+0 0  9995
2 40534  53.4001 240.4139 0086612  28.5987 331.9429  2.00574548 64271
GPS BIIF-10 (PRN 08)    
1 40730U 15033A   24024.21870317 -.00000058  00000+0  00000+0 0  9999
2 40730  54.7231 302.9640 0091708  16.1971 344.1289  2.00574674 62444
GPS BIIF-11 (PRN 10)    
1 41019U 15062A   24024.27065122 -.00000045  00000+0  00000+0 0  9994
2 41019  56.2796  64.7517 0094487 224.2157 135.0923  2.00562407 60282
GPS BIIF-12 (PRN 32)    
1 41328U 16007A   24022.85876933 -.00000052  00000+0  00000+0 0  9997
2 41328  55.0681 124.2664 0076258 235.3917 123.8781  2.00568941 58264
GPS BIII-1  (PRN 04)    
1 43873U 18109A   24024.59522713 -.00000039  00000+0  00000+0 0  9991
2 43873  55.2421 126.7426 0028477 192.7368 235.6651  2.00573323 37539
GPS BIII-2  (PRN 18)    
1 44506U 19056A   24024.24221101 -.00000099  00000+0  00000+0 0  9992
2 44506  55.8386   5.8194 0038744 190.7454 239.5889  2.00569112 32521
GPS BIII-3  (PRN 23)    
1 45854U 20041A   24024.30861352 -.00000047  00000+0  00000+0 0  9993
2 45854  56.0016  63.1234 0040068 192.6951 226.4379  2.00560467 26490
GPS BIII-4  (PRN 14)    
1 46826U 20078A   24022.00858840  .00000066  00000+0  00000+0 0  9996
2 46826  54.2429 246.3883 0039285 193.2437 341.9791  2.00561945 23915
GPS BIII-5  (PRN 11)    
1 48859U 21054A   24024.25241479 -.00000099  00000+0  00000+0 0  9999
2 48859  55.3597   7.5377 0014259 225.8962 314.5188  2.00566253 19205
GPS BIII-6  (PRN 28)    
1 55268U 23009A   24023.95327278  .00000026  00000+0  00000+0 0  9990
2 55268  55.0883 182.8600 0004834 101.6228 260.8651  2.00574610  7696
